#dP2022  5  8  0  0  0.00000000      96 __u+U ITR14 FIT  IAC
## 2209      0.00000000   900.00000000 59707 0.0000000000000
+  126   C01C02C03C04C05C06C07C08C09C10C11C12C13C14C16C19C20
+        C21C22C23C24C25C26C27C28C29C30C32C33C34C35C36C37C38
+        C39C40C41C42C43C44C45C46C60E02E03E04E05E07E08E09E10
+        E11E12E13E14E15E18E19E21E24E25E26E27E30E31E33E34E36
+        G01G02G03G04G05G06G07G08G09G10G11G12G13G14G15G16G17
+        G18G19G20G21G22G23G24G25G26G27G28G29G30G31G32J02J03
+        J07R01R02R03R04R05R06R07R08R09R10R11R12R13R14R15R17
+        R18R19R20R21R22R23R24  0  0  0  0  0  0  0  0  0  0
++        15 15 16 15 15  9  9  9  9  9  9  9  9  8  9  7  8
++         7  7  7  7  7  7  7  7  7  7  7  7  7  7  7  8  8
++         8  8  8  7  7  7  7  8 15  4  4  5  4  5  4  4  5
++         4  5  4  4  4  5  5  4  4  4  4  5  5  5  5  4  5
++         4  4  4  4  3  4  4  4  4  4  4  4  4  4  4  4  4
++         4  4  4  4  4  4  4  4  4  4  5  3  3  4  4  0  8
++         0  7  6  6  6  6 13  6  6  6 13  6  6  7  6  5  6
++         6  7  7  6  7 13  6  0  0  0  0  0  0  0  0  0  0
%c M  cc GPS ccc cccc cccc cccc cccc ccccc ccccc ccccc ccccc
%c cc cc ccc ccc cccc cccc cccc cccc ccccc ccccc ccccc ccccc
%f  0.0000000  0.000000000  0.00000000000  0.000000000000000
%f  0.0000000  0.000000000  0.00000000000  0.000000000000000
%i    0    0    0    0      0      0      0      0         0
%i    0    0    0    0      0      0      0      0         0
/* INFORMATION & ANALYSIS CENTER (IAC)            RAPID DATA
/* S/V CLOCKS ARE ALIGNED TO GNSS TIME                      
/* G:C1WC2W R:C1PC2P E:C1XC5X C:C2IC6I J:C1CC2S             
/* PCV:IGS14_2196 OL/AL:FES2004  NONE     YN ORB:CoN CLK:CoN
*  2022 05 08  4 45  0.00000000
PC01 -34299.515948  24536.274106     72.238850    168.691809
PC02   4331.045493  41869.550376  -1225.452025     48.916667
PC03 -14664.831334  39493.721312   -502.691149   -556.246713
PC04 -39607.498848  14456.251666    466.150127     57.759248
PC05  21962.374422  35922.781330  -1011.928387    232.831948
PC06  -1332.660018  33616.147643 -25275.203269    -58.300192
PC07 -14474.892263  26440.131926  29430.729711   -138.410623
PC08 -16267.093918  38536.922232  -5862.579956    301.367341
PC09   5456.982610  37354.099564 -17878.122687   -767.324979
PC10  -4763.941039  27297.630199  31963.102712    133.272614
PC11  -2816.584115 -23173.675664 -15211.978005    338.910475
PC12  11544.075673 -10293.539695 -23197.197690   -619.339379
PC13  -9975.681586  38920.854876 -13074.115983    -39.043067
PC14   4538.436628 -15917.996792  22501.845855    470.291737
PC16  -3218.768839  31659.835948 -27356.354768    128.929698
PC19   7013.084129  14961.343180 -22460.297402    871.868573
PC20 -13304.780333  14542.387025 -19720.934608   -906.328023
PC21  26971.367505  -5301.904659   4926.744401   -251.270923
PC22  24121.783499   6786.260174 -12309.245504   -972.103680
PC23 -13517.589061  -9262.690004 -22583.392377   -930.178926
PC24  13914.070254 -24039.407982   2559.731630   -961.656451
PC25  -1043.074215 -23452.329151 -15079.701258   -739.834402
PC26  18797.759559 -11840.390373  16856.897554    740.932229
PC27 -17168.092971   1456.529551  21931.665616    719.812491
PC28 -19781.528091 -16255.113395  11098.517305     64.225002
PC29  11548.923082  24465.317013   6821.726082    551.719839
PC30  -4552.910790  18276.262531  20572.629135    498.157956
PC32 -26926.963147   5449.646127  -4829.551879   -962.818172
PC33  -6954.338443 -14995.106508  22491.800317   -965.795699
PC34   3733.342382 -19018.695490 -20101.438499   -408.422457
PC35  20205.925483  16274.765753 -10239.826110    264.039945
PC36     85.121087  23727.218977  14713.604854   -963.940446
PC37 -19073.765644  10296.600437 -17571.671193   -914.235038
PC38 -19740.070982  37298.208097   1859.339060    230.598653
PC39  -7104.215943  27554.431208 -31032.880179     34.971752
PC40 -20616.811673  19926.991467  30830.153947    267.248374
PC41 -23817.725203  -7059.995123  12763.906821   -965.784466
PC42  14363.279196 -14358.638667  19198.320265   -964.722671
PC43 -10920.364241 -24590.396735  -7465.764267   -925.401821
PC44  17293.921136  -1996.807562 -21817.326992    652.593683
PC45  13567.423692   8930.128374  22694.693862    751.358170
PC46 -13067.016039  24654.009630  -1118.290477   -312.940745
PC60   7343.868008  41507.561023    714.377624     -0.794796
PE02   -533.723851 -18568.294792 -23046.420298    297.766025
PE03 -12371.300650 -19982.580415  17991.257819   -556.007313
PE04  26181.984430  13722.268665  -1561.862359  -1023.209702
PE05   8974.331256 -14604.851894  24140.625357   -183.667076
PE07 -24779.166408    807.990895 -16151.491954   -666.315267
PE08 -26316.488281 -13471.059375   1317.917812   -525.379091
PE09  24686.447840   -911.581927  16328.369585   -510.753766
PE10  16175.214251   4872.289326 -24316.071998   -511.600956
PE11  15228.253847  -7378.394755 -24301.624053   3735.319966
PE12  14597.994568  15702.259720 -20402.740524   4624.626966
PE13 -15286.309241   6573.980960  24478.270497    428.534254
PE14 -16264.838391   4830.284906  16185.127877  -1841.226706
PE15 -14529.708991 -15856.895033  20344.453259    746.994445
PE18  22387.843779  -6689.664434 -22577.292550  -1474.500442
PE19   9939.496997  19882.088053 -19534.402114  -4300.662073
PE21 -17294.263378  21173.346214  11346.924368   -732.918701
PE24  26219.362133 -10699.048240   8564.650012   -603.011039
PE25  17501.020133 -21123.223047 -11114.441390   -573.156597
PE26  -6670.039852  25560.204696  13350.304339  -1119.336517
PE27 -26141.323836  11699.406635  -7496.383692   -293.777305
PE30 -18841.229692  -5523.634354 -22166.526895   -492.805656
PE31  19525.694654   4585.178008  21772.564856   -496.281632
PE33   5209.186147  28820.783120  -4237.941479   -456.857513
PE34  -5373.496138 -28769.586080   4419.174549   -515.956911
PE36   7060.309980 -24998.324177 -14206.393695   -370.559229
PG01 -13015.808769  13125.825448  18633.966406    367.774108
PG02  13867.897224  10254.119982 -19504.431758   -653.278540
PG03 -23036.849931  13039.933784  -1252.987001   -236.298951
PG04 -17294.329447   4777.651952 -19600.909111   -169.261372
PG05  23031.589721  -2601.390446 -13271.397821    -81.059117
PG06   6084.728212  23403.423166 -10830.766996    295.098973
PG07  -5590.529259  24829.713329  -6222.496163    321.830161
PG08 -22812.384893  -2748.879504  13586.139821    -67.111789
PG09  -7296.833000  13568.658162 -21698.288929   -338.369428
PG10   -157.236021 -16185.688762  21147.442970   -406.373740
PG11  13071.911199  11175.639854 -20246.135339    -27.850213
PG12  24739.700480  -9149.955666   2214.133721   -212.115394
PG13  22441.627944  12229.280088   7397.963483    307.698489
PG14  -1688.238268  16874.800252  20416.205369   -107.215093
PG15  22852.974016   -340.440300  13376.542041    -62.960036
PG16 -20995.162650  -3504.014939 -16442.566894   -498.936326
PG17   9004.584749  19653.189714  15826.076919    609.972957
PG18   6434.930854 -24679.725100  -7212.436733    175.872774
PG19  15389.330994  19799.928008   8799.159852    154.466647
PG20  16845.345800   5337.016116 -19757.056728    515.469122
PG21 -15460.831578   1539.200001  22165.934589    160.970804
PG22 -17131.670223 -19255.973024   7207.303588    255.611605
PG23  11292.438768 -18433.373902  15355.396097    -20.420044
PG24  14430.060924  -9050.853260  19984.404256    244.846447
PG25  17260.226126 -17365.602244 -10232.109841    321.923242
PG26 -12251.566840 -10723.333194 -21111.961790    204.115463
PG27 -23434.105464 -12621.242409   2704.583999    199.092405
PG28   7302.240935  13488.553388  22187.213556    361.549155
PG29   8581.188161 -12061.098011 -22105.655661   -511.347644
PG30    398.558491  26298.920038   2613.085301   -527.035591
PG31  -7866.873963 -21569.320783 -13069.575974   -176.700158
PG32 -12294.959232 -19194.135808  13932.902508   -122.186530
PJ02      0.000000      0.000000      0.000000 999999.999999
PJ03 -25325.221483  24202.673564  28537.626731     -2.008628
PJ07      0.000000      0.000000      0.000000 999999.999999
PR01 -20616.954471  -8022.489094  12691.324053      8.503993
PR02 -24643.632256    126.883353  -6652.842903    517.733248
PR03 -13309.849705   8095.906150 -20164.932052     56.273332
PR04   5276.309907  11142.696856 -22295.813940    140.457643
PR05  20873.437542   8255.645013 -12080.235368     92.504747
PR06  24260.870188  -1539.735215   7693.840912    -47.248322
PR07  12486.918565  -8396.101258  20628.435379     34.801942
PR08  -5453.232250 -11278.643627  22285.531307    -65.015540
PR09  17047.770086 -10419.585047  15921.024670     53.885194
PR10  15329.543636 -20298.965995   1288.962994    -82.197296
PR11   4878.881715 -19525.639441 -15671.568758     39.519747
PR12  -8982.363502  -6329.393222 -22995.726499     18.336981
PR13 -16655.423598   9323.631063 -16936.742117    -21.988093
PR14 -14911.819535  20683.009283    229.877395     77.354884
PR15  -4391.414485  19143.798594  16291.650918     96.291532
PR17  -3389.042183  15328.809422  20118.969617    524.158671
PR18   6457.879472  23628.506546   7024.639480    116.122859
PR19  12163.877487  20627.347767  -8791.311600   -188.218952
PR20  11815.551376   3077.107973 -22385.670478    -70.153634
PR21   2545.889808 -16408.082540 -19361.302969   -299.493296
PR22  -6809.931427 -23853.627097  -6183.598079   -181.789117
PR23 -13518.792192 -16587.731085  13876.628714    -39.902053
PR24 -12122.167920  -1915.846543  22371.309715     92.693779
EOF
